start=new Date('2022-02-25T00:00:00.000Z').valueOf();
sats=[{"PERIOD":"95.437","SITE":"AFETR","PERIAPSIS":"538.290","FILE":"3320106","BSTAR":"-0.00183520000000","CENTER_NAME":"EARTH","CLASSIFICATION_TYPE":"U","COUNTRY_CODE":"US","OBJECT_TYPE":"PAYLOAD","APOAPSIS":"541.162","OBJECT_NAME":"STARLINK-3159","DECAY_DATE":null,"SEMIMAJOR_AXIS":"6917.861","ELEMENT_SET_NO":"999","NORAD_CAT_ID":"49415","INCLINATION":"53.2186","LAUNCH_DATE":"2021-11-13","MEAN_ELEMENT_THEORY":"SGP4","ECCENTRICITY":"0.00020760","RA_OF_ASC_NODE":"354.7719","MEAN_ANOMALY":"337.4964","TIME_SYSTEM":"UTC","REV_AT_EPOCH":"1737","TLE_LINE2":"2 49415  53.2186 354.7719 0002076  42.4979 337.4964 15.08846429 17377","MEAN_MOTION_DDOT":"0.0000000000000","REF_FRAME":"TEME","OBJECT_ID":"2021-104H","ARG_OF_PERICENTER":"42.4979","EPOCH":"2022-02-25T00:00:00.999648","MEAN_MOTION_DOT":"-0.00029383","EPHEMERIS_TYPE":"0","TLE_LINE1":"1 49415U 21104H   22056.00001157 -.00029383  00000-0 -18352-2 0  9998","RCS_SIZE":"LARGE","MEAN_MOTION":"15.08846429","GP_ID":"196875395"},{"RA_OF_ASC_NODE":"5.1397","ECCENTRICITY":"0.00025490","MEAN_ANOMALY":"229.7142","LAUNCH_DATE":"2021-11-13","NORAD_CAT_ID":"49416","INCLINATION":"53.2171","ELEMENT_SET_NO":"999","MEAN_ELEMENT_THEORY":"SGP4","GP_ID":"196903145","TLE_LINE1":"1 49416U 21104J   22055.91667824 -.00043538  00000-0 -27340-2 0  9992","MEAN_MOTION":"15.08838148","RCS_SIZE":"LARGE","EPHEMERIS_TYPE":"0","MEAN_MOTION_DDOT":"0.0000000000000","TLE_LINE2":"2 49416  53.2171   5.1397 0002549  42.3382 229.7142 15.08838148  3570","REF_FRAME":"TEME","OBJECT_ID":"2021-104J","ARG_OF_PERICENTER":"42.3382","REV_AT_EPOCH":"357","TIME_SYSTEM":"UTC","MEAN_MOTION_DOT":"-0.00043538","EPOCH":"2022-02-24T22:00:00.999936","BSTAR":"-0.00273400000000","CLASSIFICATION_TYPE":"U","CENTER_NAME":"EARTH","SITE":"AFETR","PERIOD":"95.438","FILE":"3320325","PERIAPSIS":"537.988","OBJECT_NAME":"STARLINK-3133","SEMIMAJOR_AXIS":"6917.886","DECAY_DATE":null,"COUNTRY_CODE":"US","APOAPSIS":"541.514","OBJECT_TYPE":"PAYLOAD"},{"CENTER_NAME":"EARTH","CLASSIFICATION_TYPE":"U","BSTAR":"-0.00000859990000","FILE":"3320325","PERIAPSIS":"538.344","SITE":"AFETR","PERIOD":"95.437","SEMIMAJOR_AXIS":"6917.873","DECAY_DATE":null,"OBJECT_NAME":"STARLINK-3154","OBJECT_TYPE":"PAYLOAD","APOAPSIS":"541.133","COUNTRY_CODE":"US","MEAN_ANOMALY":"309.8076","RA_OF_ASC_NODE":"355.4024","ECCENTRICITY":"0.00020160","MEAN_ELEMENT_THEORY":"SGP4","LAUNCH_DATE":"2021-11-13","ELEMENT_SET_NO":"999","INCLINATION":"53.2192","NORAD_CAT_ID":"49417","GP_ID":"196902896","EPHEMERIS_TYPE":"0","RCS_SIZE":"LARGE","TLE_LINE1":"1 49417U 21104K   22055.86017847 -.00000425  00000-0 -85999-5 0  9996","MEAN_MOTION":"15.08842257","EPOCH":"2022-02-24T20:38:39.419808","MEAN_MOTION_DOT":"-0.00000425","TLE_LINE2":"2 49417  53.2192 355.4024 0002016  50.3093 309.8076 15.08842257 16261","OBJECT_ID":"2021-104K","MEAN_MOTION_DDOT":"0.0000000000000","REF_FRAME":"TEME","ARG_OF_PERICENTER":"50.3093","TIME_SYSTEM":"UTC","REV_AT_EPOCH":"1626"},{"OBJECT_NAME":"STARLINK-3111","DECAY_DATE":null,"SEMIMAJOR_AXIS":"6917.826","COUNTRY_CODE":"US","OBJECT_TYPE":"PAYLOAD","APOAPSIS":"541.331","BSTAR":"-0.00002498000000","CLASSIFICATION_TYPE":"U","CENTER_NAME":"EARTH","PERIOD":"95.436","SITE":"AFETR","PERIAPSIS":"538.051","FILE":"3320325","EPHEMERIS_TYPE":"0","MEAN_MOTION":"15.08857778","TLE_LINE1":"1 49418U 21104L   22055.91667824 -.00000686  00000-0 -24980-4 0  9990","RCS_SIZE":"LARGE","GP_ID":"196904147","TIME_SYSTEM":"UTC","REV_AT_EPOCH":"356","MEAN_MOTION_DDOT":"0.0000000000000","TLE_LINE2":"2 49418  53.2160   5.1402 0002371  47.8182 244.2445 15.08857778  3565","OBJECT_ID":"2021-104L","REF_FRAME":"TEME","ARG_OF_PERICENTER":"47.8182","EPOCH":"2022-02-24T22:00:00.999936","MEAN_MOTION_DOT":"-0.00000686","ECCENTRICITY":"0.00023710","RA_OF_ASC_NODE":"5.1402","MEAN_ANOMALY":"244.2445","ELEMENT_SET_NO":"999","NORAD_CAT_ID":"49418","INCLINATION":"53.2160","LAUNCH_DATE":"2021-11-13","MEAN_ELEMENT_THEORY":"SGP4"},{"MEAN_ANOMALY":"301.7900","RA_OF_ASC_NODE":"5.1385","ECCENTRICITY":"0.00021850","MEAN_ELEMENT_THEORY":"SGP4","LAUNCH_DATE":"2021-11-13","NORAD_CAT_ID":"49419","INCLINATION":"53.2157","ELEMENT_SET_NO":"999","GP_ID":"196903898","TLE_LINE1":"1 49419U 21104M   22055.91667824 -.00004267  00000-0 -25016-3 0  9990","RCS_SIZE":"LARGE","MEAN_MOTION":"15.08838156","EPHEMERIS_TYPE":"0","MEAN_MOTION_DOT":"-0.00004267","EPOCH":"2022-02-24T22:00:00.999936","OBJECT_ID":"2021-104M","TLE_LINE2":"2 49419  53.2157   5.1385 0002185  50.2698 301.7900 15.08838156  3569","MEAN_MOTION_DDOT":"0.0000000000000","REF_FRAME":"TEME","ARG_OF_PERICENTER":"50.2698","REV_AT_EPOCH":"356","TIME_SYSTEM":"UTC","CLASSIFICATION_TYPE":"U","CENTER_NAME":"EARTH","BSTAR":"-0.00025016000000","PERIAPSIS":"538.239","FILE":"3320325","SITE":"AFETR","PERIOD":"95.438","SEMIMAJOR_AXIS":"6917.886","DECAY_DATE":null,"OBJECT_NAME":"STARLINK-3120","APOAPSIS":"541.263","OBJECT_TYPE":"PAYLOAD","COUNTRY_CODE":"US"},{"REF_FRAME":"TEME","TLE_LINE2":"2 49420  53.2149   5.1379 0002277  46.6795 265.3866 15.08846255  3569","MEAN_MOTION_DDOT":"0.0000000000000","OBJECT_ID":"2021-104N","ARG_OF_PERICENTER":"46.6795","REV_AT_EPOCH":"356","TIME_SYSTEM":"UTC","MEAN_MOTION_DOT":"-0.00000961","EPOCH":"2022-02-24T22:00:00.999936","GP_ID":"196902646","RCS_SIZE":"LARGE","TLE_LINE1":"1 49420U 21104N   22055.91667824 -.00000961  00000-0 -42230-4 0  9997","MEAN_MOTION":"15.08846255","EPHEMERIS_TYPE":"0","LAUNCH_DATE":"2021-11-13","INCLINATION":"53.2149","NORAD_CAT_ID":"49420","ELEMENT_SET_NO":"999","MEAN_ELEMENT_THEORY":"SGP4","RA_OF_ASC_NODE":"5.1379","ECCENTRICITY":"0.00022770","MEAN_ANOMALY":"265.3866","COUNTRY_CODE":"US","APOAPSIS":"541.301","OBJECT_TYPE":"PAYLOAD","OBJECT_NAME":"STARLINK-3110","SEMIMAJOR_AXIS":"6917.861","DECAY_DATE":null,"SITE":"AFETR","PERIOD":"95.437","PERIAPSIS":"538.151","FILE":"3320325","BSTAR":"-0.00004223000000","CLASSIFICATION_TYPE":"U","CENTER_NAME":"EARTH"},{"SITE":"AFETR","PERIOD":"95.437","PERIAPSIS":"538.336","FILE":"3320325","BSTAR":"-0.00014604000000","CLASSIFICATION_TYPE":"U","CENTER_NAME":"EARTH","COUNTRY_CODE":"US","OBJECT_TYPE":"PAYLOAD","APOAPSIS":"541.107","OBJECT_NAME":"STARLINK-3112","SEMIMAJOR_AXIS":"6917.856","DECAY_DATE":null,"LAUNCH_DATE":"2021-11-13","ELEMENT_SET_NO":"999","INCLINATION":"53.2178","NORAD_CAT_ID":"49421","MEAN_ELEMENT_THEORY":"SGP4","RA_OF_ASC_NODE":"5.1316","ECCENTRICITY":"0.00020030","MEAN_ANOMALY":"338.4610","OBJECT_ID":"2021-104P","TLE_LINE2":"2 49421  53.2178   5.1316 0002003  53.6102 338.4610 15.08847860  3573","MEAN_MOTION_DDOT":"0.0000000000000","REF_FRAME":"TEME","ARG_OF_PERICENTER":"53.6102","TIME_SYSTEM":"UTC","REV_AT_EPOCH":"357","EPOCH":"2022-02-24T22:00:00.999936","MEAN_MOTION_DOT":"-0.00002612","GP_ID":"196903396","EPHEMERIS_TYPE":"0","TLE_LINE1":"1 49421U 21104P   22055.91667824 -.00002612  00000-0 -14604-3 0  9996","MEAN_MOTION":"15.08847860","RCS_SIZE":"LARGE"},{"APOAPSIS":"541.438","OBJECT_TYPE":"PAYLOAD","COUNTRY_CODE":"US","DECAY_DATE":null,"SEMIMAJOR_AXIS":"6917.890","OBJECT_NAME":"STARLINK-3161","FILE":"3320325","PERIAPSIS":"538.072","PERIOD":"95.438","SITE":"AFETR","CLASSIFICATION_TYPE":"U","CENTER_NAME":"EARTH","BSTAR":"0.00001198000000","MEAN_MOTION_DOT":"-0.00000098","EPOCH":"2022-02-24T22:00:00.999936","REV_AT_EPOCH":"356","TIME_SYSTEM":"UTC","OBJECT_ID":"2021-104Q","TLE_LINE2":"2 49422  53.2162   5.1392 0002433  47.5238 284.5456 15.08836927  3560","MEAN_MOTION_DDOT":"0.0000000000000","REF_FRAME":"TEME","ARG_OF_PERICENTER":"47.5238","TLE_LINE1":"1 49422U 21104Q   22055.91667824 -.00000098  00000-0  11980-4 0  9997","RCS_SIZE":"LARGE","MEAN_MOTION":"15.08836927","EPHEMERIS_TYPE":"0","GP_ID":"196903648","MEAN_ELEMENT_THEORY":"SGP4","NORAD_CAT_ID":"49422","INCLINATION":"53.2162","ELEMENT_SET_NO":"999","LAUNCH_DATE":"2021-11-13","MEAN_ANOMALY":"284.5456","ECCENTRICITY":"0.00024330","RA_OF_ASC_NODE":"5.1392"},{"BSTAR":"-0.00057146000000","CENTER_NAME":"EARTH","CLASSIFICATION_TYPE":"U","SITE":"AFETR","PERIOD":"95.436","PERIAPSIS":"538.401","FILE":"3320325","OBJECT_NAME":"STARLINK-3149","SEMIMAJOR_AXIS":"6917.814","DECAY_DATE":null,"COUNTRY_CODE":"US","APOAPSIS":"540.958","OBJECT_TYPE":"PAYLOAD","RA_OF_ASC_NODE":"5.1286","ECCENTRICITY":"0.00018480","MEAN_ANOMALY":"17.9852","LAUNCH_DATE":"2021-11-13","NORAD_CAT_ID":"49423","INCLINATION":"53.2170","ELEMENT_SET_NO":"999","MEAN_ELEMENT_THEORY":"SGP4","GP_ID":"196904398","TLE_LINE1":"1 49423U 21104R   22055.91667824 -.00009377  00000-0 -57146-3 0  9991","MEAN_MOTION":"15.08861569","RCS_SIZE":"LARGE","EPHEMERIS_TYPE":"0","TLE_LINE2":"2 49423  53.2170   5.1286 0001848  54.1041  17.9852 15.08861569  3587","ARG_OF_PERICENTER":"54.1041","MEAN_MOTION_DDOT":"0.0000000000000","REF_FRAME":"TEME","OBJECT_ID":"2021-104R","REV_AT_EPOCH":"358","TIME_SYSTEM":"UTC","MEAN_MOTION_DOT":"-0.00009377","EPOCH":"2022-02-24T22:00:00.999936"},{"PERIAPSIS":"538.428","FILE":"3320325","PERIOD":"95.439","SITE":"AFETR","CLASSIFICATION_TYPE":"U","CENTER_NAME":"EARTH","BSTAR":"0.00029048000000","APOAPSIS":"541.175","OBJECT_TYPE":"PAYLOAD","COUNTRY_CODE":"US","DECAY_DATE":null,"SEMIMAJOR_AXIS":"6917.937","OBJECT_NAME":"STARLINK-3135","MEAN_ELEMENT_THEORY":"SGP4","INCLINATION":"53.2165","NORAD_CAT_ID":"49424","ELEMENT_SET_NO":"999","LAUNCH_DATE":"2021-11-13","MEAN_ANOMALY":"327.8402","ECCENTRICITY":"0.00019850","RA_OF_ASC_NODE":"5.1368","MEAN_MOTION_DOT":"0.00004336","EPOCH":"2022-02-24T22:00:00.999936","REV_AT_EPOCH":"358","TIME_SYSTEM":"UTC","TLE_LINE2":"2 49424  53.2165   5.1368 0001985  44.2049 327.8402 15.08821600  3589","REF_FRAME":"TEME","MEAN_MOTION_DDOT":"0.0000000000000","ARG_OF_PERICENTER":"44.2049","OBJECT_ID":"2021-104S","MEAN_MOTION":"15.08821600","TLE_LINE1":"1 49424U 21104S   22055.91667824  .00004336  00000-0  29048-3 0  9990","RCS_SIZE":"LARGE","EPHEMERIS_TYPE":"0","GP_ID":"196903146"}];
